STARLINK-36170          
1 67083U 25298J   26063.50001156 -.00044655  00000+0 -36776-2 0  9991
2 67083  70.0010  27.6806 0002234 274.0255 185.8636 14.99171693  5887
STARLINK-36166          
1 67084U 25298K   26063.50001156 -.00041635  00000+0 -34265-2 0  9998
2 67084  70.0009  27.6968 0002157 276.2512 169.8384 14.99176367  5839
STARLINK-35794          
1 67085U 25298L   26063.50001156 -.00027903  00000+0 -22899-2 0  9991
2 67085  70.0005  27.6416 0002771 247.4408 256.5425 14.99164748  5885
STARLINK-35841          
1 67086U 25298M   26063.50001156 -.00045427  00000+0 -37420-2 0  9999
2 67086  70.0009  27.6906 0002240 273.0437 177.4125 14.99167717  5834
STARLINK-35842          
1 67087U 25298N   26063.50001156 -.02250171  00000+0 -17405+0 0  9994
2 67087  69.9996  27.6314 0002387 278.2481 232.9650 15.05215081  5890
STARLINK-35882          
1 67088U 25298P   26063.50001156 -.00063515  00000+0 -52470-2 0  9991
2 67088  70.0013  27.7151 0003170 266.3191 163.3819 14.99177146  5885
STARLINK-35763          
1 67089U 25298Q   26063.50001156 -.00043436  00000+0 -36530-2 0  9991
2 67089  70.0002  27.7431 0002691 273.3478 134.7854 14.98353681  5844
STARLINK-36060          
1 67090U 25298R   26063.50001156 -.00044368  00000+0 -36544-2 0  9993
2 67090  70.0008  27.5481 0002899 278.0025 302.1814 14.99162101  5736
STARLINK-36097          
1 67091U 25298S   26063.33105444  .00112397  00000+0  44223-2 0  9999
2 67091  70.0020  27.6101 0002614 239.4604 120.6311 15.25053784 12425
STARLINK-35792          
1 67092U 25298T   26063.50001156 -.00042922  00000+0 -35342-2 0  9994
2 67092  70.0005  27.6870 0002631 272.7489 184.2768 14.99163989  5841
STARLINK-35784          
1 67093U 25298U   26063.50001156 -.00038989  00000+0 -32082-2 0  9991
2 67093  70.0007  27.5982 0002719 274.6879 263.6505 14.99160255  5886
STARLINK-36202          
1 67094U 25298V   26063.50001156 -.00038343  00000+0 -31548-2 0  9992
2 67094  70.0003  27.5429 0002678 265.7668 321.5389 14.99158075  5791
STARLINK-36227          
1 67095U 25298W   26063.50001156 -.00042770  00000+0 -35215-2 0  9997
2 67095  70.0010  27.5651 0002696 268.7601 295.4212 14.99165661  5879
STARLINK-36228          
1 67096U 25298X   26063.50001156 -.00038991  00000+0 -32067-2 0  9990
2 67096  70.0008  27.6450 0002807 288.0085 201.3569 14.99179132  5868
STARLINK-36222          
1 67097U 25298Y   26063.50001156 -.00044821  00000+0 -36920-2 0  9992
2 67097  70.0008  27.6832 0002436 272.8814 183.4090 14.99164018  5880
STARLINK-36205          
1 67098U 25298Z   26063.41668981  .00008381  00000+0  69474-3 0  9998
2 67098  69.9999  27.7909 0003044 269.9434 195.2305 14.99136031  5855
