[{"OBJECT_NAME":"STARLINK-36170","OBJECT_ID":"2025-298J","EPOCH":"2026-03-04T12:00:00.998784","MEAN_MOTION":14.99171693,"ECCENTRICITY":0.0002234,"INCLINATION":70.001,"RA_OF_ASC_NODE":27.6806,"ARG_OF_PERICENTER":274.0255,"MEAN_ANOMALY":185.8636,"EPHEMERIS_TYPE":0,"CLASSIFICATION_TYPE":"U","NORAD_CAT_ID":67083,"ELEMENT_SET_NO":999,"REV_AT_EPOCH":588,"BSTAR":-0.0036776,"MEAN_MOTION_DOT":-0.00044655,"MEAN_MOTION_DDOT":0},{"OBJECT_NAME":"STARLINK-36166","OBJECT_ID":"2025-298K","EPOCH":"2026-03-04T12:00:00.998784","MEAN_MOTION":14.99176367,"ECCENTRICITY":0.0002157,"INCLINATION":70.0009,"RA_OF_ASC_NODE":27.6968,"ARG_OF_PERICENTER":276.2512,"MEAN_ANOMALY":169.8384,"EPHEMERIS_TYPE":0,"CLASSIFICATION_TYPE":"U","NORAD_CAT_ID":67084,"ELEMENT_SET_NO":999,"REV_AT_EPOCH":583,"BSTAR":-0.0034265,"MEAN_MOTION_DOT":-0.00041635,"MEAN_MOTION_DDOT":0},{"OBJECT_NAME":"STARLINK-35794","OBJECT_ID":"2025-298L","EPOCH":"2026-03-04T12:00:00.998784","MEAN_MOTION":14.99164748,"ECCENTRICITY":0.0002771,"INCLINATION":70.0005,"RA_OF_ASC_NODE":27.6416,"ARG_OF_PERICENTER":247.4408,"MEAN_ANOMALY":256.5425,"EPHEMERIS_TYPE":0,"CLASSIFICATION_TYPE":"U","NORAD_CAT_ID":67085,"ELEMENT_SET_NO":999,"REV_AT_EPOCH":588,"BSTAR":-0.0022899,"MEAN_MOTION_DOT":-0.00027903,"MEAN_MOTION_DDOT":0},{"OBJECT_NAME":"STARLINK-35841","OBJECT_ID":"2025-298M","EPOCH":"2026-03-04T12:00:00.998784","MEAN_MOTION":14.99167717,"ECCENTRICITY":0.000224,"INCLINATION":70.0009,"RA_OF_ASC_NODE":27.6906,"ARG_OF_PERICENTER":273.0437,"MEAN_ANOMALY":177.4125,"EPHEMERIS_TYPE":0,"CLASSIFICATION_TYPE":"U","NORAD_CAT_ID":67086,"ELEMENT_SET_NO":999,"REV_AT_EPOCH":583,"BSTAR":-0.003742,"MEAN_MOTION_DOT":-0.00045427,"MEAN_MOTION_DDOT":0},{"OBJECT_NAME":"STARLINK-35842","OBJECT_ID":"2025-298N","EPOCH":"2026-03-04T12:00:00.998784","MEAN_MOTION":15.05215081,"ECCENTRICITY":0.0002387,"INCLINATION":69.9996,"RA_OF_ASC_NODE":27.6314,"ARG_OF_PERICENTER":278.2481,"MEAN_ANOMALY":232.965,"EPHEMERIS_TYPE":0,"CLASSIFICATION_TYPE":"U","NORAD_CAT_ID":67087,"ELEMENT_SET_NO":999,"REV_AT_EPOCH":589,"BSTAR":-0.17405,"MEAN_MOTION_DOT":-0.02250171,"MEAN_MOTION_DDOT":0},{"OBJECT_NAME":"STARLINK-35882","OBJECT_ID":"2025-298P","EPOCH":"2026-03-04T12:00:00.998784","MEAN_MOTION":14.99177146,"ECCENTRICITY":0.000317,"INCLINATION":70.0013,"RA_OF_ASC_NODE":27.7151,"ARG_OF_PERICENTER":266.3191,"MEAN_ANOMALY":163.3819,"EPHEMERIS_TYPE":0,"CLASSIFICATION_TYPE":"U","NORAD_CAT_ID":67088,"ELEMENT_SET_NO":999,"REV_AT_EPOCH":588,"BSTAR":-0.005247,"MEAN_MOTION_DOT":-0.00063515,"MEAN_MOTION_DDOT":0},{"OBJECT_NAME":"STARLINK-35763","OBJECT_ID":"2025-298Q","EPOCH":"2026-03-04T12:00:00.998784","MEAN_MOTION":14.98353681,"ECCENTRICITY":0.0002691,"INCLINATION":70.0002,"RA_OF_ASC_NODE":27.7431,"ARG_OF_PERICENTER":273.3478,"MEAN_ANOMALY":134.7854,"EPHEMERIS_TYPE":0,"CLASSIFICATION_TYPE":"U","NORAD_CAT_ID":67089,"ELEMENT_SET_NO":999,"REV_AT_EPOCH":584,"BSTAR":-0.003653,"MEAN_MOTION_DOT":-0.00043436,"MEAN_MOTION_DDOT":0},{"OBJECT_NAME":"STARLINK-36060","OBJECT_ID":"2025-298R","EPOCH":"2026-03-04T12:00:00.998784","MEAN_MOTION":14.99162101,"ECCENTRICITY":0.0002899,"INCLINATION":70.0008,"RA_OF_ASC_NODE":27.5481,"ARG_OF_PERICENTER":278.0025,"MEAN_ANOMALY":302.1814,"EPHEMERIS_TYPE":0,"CLASSIFICATION_TYPE":"U","NORAD_CAT_ID":67090,"ELEMENT_SET_NO":999,"REV_AT_EPOCH":573,"BSTAR":-0.0036544,"MEAN_MOTION_DOT":-0.00044368,"MEAN_MOTION_DDOT":0},{"OBJECT_NAME":"STARLINK-36097","OBJECT_ID":"2025-298S","EPOCH":"2026-03-04T07:56:43.103616","MEAN_MOTION":15.25053784,"ECCENTRICITY":0.0002614,"INCLINATION":70.002,"RA_OF_ASC_NODE":27.6101,"ARG_OF_PERICENTER":239.4604,"MEAN_ANOMALY":120.6311,"EPHEMERIS_TYPE":0,"CLASSIFICATION_TYPE":"U","NORAD_CAT_ID":67091,"ELEMENT_SET_NO":999,"REV_AT_EPOCH":1242,"BSTAR":0.0044223,"MEAN_MOTION_DOT":0.00112397,"MEAN_MOTION_DDOT":0},{"OBJECT_NAME":"STARLINK-35792","OBJECT_ID":"2025-298T","EPOCH":"2026-03-04T12:00:00.998784","MEAN_MOTION":14.99163989,"ECCENTRICITY":0.0002631,"INCLINATION":70.0005,"RA_OF_ASC_NODE":27.687,"ARG_OF_PERICENTER":272.7489,"MEAN_ANOMALY":184.2768,"EPHEMERIS_TYPE":0,"CLASSIFICATION_TYPE":"U","NORAD_CAT_ID":67092,"ELEMENT_SET_NO":999,"REV_AT_EPOCH":584,"BSTAR":-0.0035342,"MEAN_MOTION_DOT":-0.00042922,"MEAN_MOTION_DDOT":0},{"OBJECT_NAME":"STARLINK-35784","OBJECT_ID":"2025-298U","EPOCH":"2026-03-04T12:00:00.998784","MEAN_MOTION":14.99160255,"ECCENTRICITY":0.0002719,"INCLINATION":70.0007,"RA_OF_ASC_NODE":27.5982,"ARG_OF_PERICENTER":274.6879,"MEAN_ANOMALY":263.6505,"EPHEMERIS_TYPE":0,"CLASSIFICATION_TYPE":"U","NORAD_CAT_ID":67093,"ELEMENT_SET_NO":999,"REV_AT_EPOCH":588,"BSTAR":-0.0032082,"MEAN_MOTION_DOT":-0.00038989,"MEAN_MOTION_DDOT":0},{"OBJECT_NAME":"STARLINK-36202","OBJECT_ID":"2025-298V","EPOCH":"2026-03-04T12:00:00.998784","MEAN_MOTION":14.99158075,"ECCENTRICITY":0.0002678,"INCLINATION":70.0003,"RA_OF_ASC_NODE":27.5429,"ARG_OF_PERICENTER":265.7668,"MEAN_ANOMALY":321.5389,"EPHEMERIS_TYPE":0,"CLASSIFICATION_TYPE":"U","NORAD_CAT_ID":67094,"ELEMENT_SET_NO":999,"REV_AT_EPOCH":579,"BSTAR":-0.0031548,"MEAN_MOTION_DOT":-0.00038343,"MEAN_MOTION_DDOT":0},{"OBJECT_NAME":"STARLINK-36227","OBJECT_ID":"2025-298W","EPOCH":"2026-03-04T12:00:00.998784","MEAN_MOTION":14.99165661,"ECCENTRICITY":0.0002696,"INCLINATION":70.001,"RA_OF_ASC_NODE":27.5651,"ARG_OF_PERICENTER":268.7601,"MEAN_ANOMALY":295.4212,"EPHEMERIS_TYPE":0,"CLASSIFICATION_TYPE":"U","NORAD_CAT_ID":67095,"ELEMENT_SET_NO":999,"REV_AT_EPOCH":587,"BSTAR":-0.0035215,"MEAN_MOTION_DOT":-0.0004277,"MEAN_MOTION_DDOT":0},{"OBJECT_NAME":"STARLINK-36228","OBJECT_ID":"2025-298X","EPOCH":"2026-03-04T12:00:00.998784","MEAN_MOTION":14.99179132,"ECCENTRICITY":0.0002807,"INCLINATION":70.0008,"RA_OF_ASC_NODE":27.645,"ARG_OF_PERICENTER":288.0085,"MEAN_ANOMALY":201.3569,"EPHEMERIS_TYPE":0,"CLASSIFICATION_TYPE":"U","NORAD_CAT_ID":67096,"ELEMENT_SET_NO":999,"REV_AT_EPOCH":586,"BSTAR":-0.0032067,"MEAN_MOTION_DOT":-0.00038991,"MEAN_MOTION_DDOT":0},{"OBJECT_NAME":"STARLINK-36222","OBJECT_ID":"2025-298Y","EPOCH":"2026-03-04T12:00:00.998784","MEAN_MOTION":14.99164018,"ECCENTRICITY":0.0002436,"INCLINATION":70.0008,"RA_OF_ASC_NODE":27.6832,"ARG_OF_PERICENTER":272.8814,"MEAN_ANOMALY":183.409,"EPHEMERIS_TYPE":0,"CLASSIFICATION_TYPE":"U","NORAD_CAT_ID":67097,"ELEMENT_SET_NO":999,"REV_AT_EPOCH":588,"BSTAR":-0.003692,"MEAN_MOTION_DOT":-0.00044821,"MEAN_MOTION_DDOT":0},{"OBJECT_NAME":"STARLINK-36205","OBJECT_ID":"2025-298Z","EPOCH":"2026-03-04T10:00:01.999584","MEAN_MOTION":14.99136031,"ECCENTRICITY":0.0003044,"INCLINATION":69.9999,"RA_OF_ASC_NODE":27.7909,"ARG_OF_PERICENTER":269.9434,"MEAN_ANOMALY":195.2305,"EPHEMERIS_TYPE":0,"CLASSIFICATION_TYPE":"U","NORAD_CAT_ID":67098,"ELEMENT_SET_NO":999,"REV_AT_EPOCH":585,"BSTAR":0.00069474,"MEAN_MOTION_DOT":8.381e-5,"MEAN_MOTION_DDOT":0}]
